HAWK-8A                 
1 59443U 24066B   26068.40724718  .00002325  00000+0  20899-3 0  9990
2 59443  45.5937  72.3645 0004214 254.4969 105.5447 14.98766556104869
STARLINK-36207          
1 67014U 25293M   26068.47381377  .00002383  00000+0  20756-3 0  9999
2 67014  70.0014  95.0756 0002744 271.2365  88.8479 14.98309286 14859
