[{"OBJECT_NAME":"HAWK-8A","OBJECT_ID":"2024-066B","EPOCH":"2026-03-09T09:46:26.156352","MEAN_MOTION":14.98766556,"ECCENTRICITY":0.00042143,"INCLINATION":45.5937,"RA_OF_ASC_NODE":72.3645,"ARG_OF_PERICENTER":254.4969,"MEAN_ANOMALY":105.5447,"EPHEMERIS_TYPE":0,"CLASSIFICATION_TYPE":"U","NORAD_CAT_ID":59443,"ELEMENT_SET_NO":999,"REV_AT_EPOCH":10486,"BSTAR":0.0002089936,"MEAN_MOTION_DOT":2.325e-5,"MEAN_MOTION_DDOT":0},{"OBJECT_NAME":"STARLINK-36207","OBJECT_ID":"2025-293M","EPOCH":"2026-03-09T11:22:17.509728","MEAN_MOTION":14.98309286,"ECCENTRICITY":0.0002744,"INCLINATION":70.0014,"RA_OF_ASC_NODE":95.0756,"ARG_OF_PERICENTER":271.2365,"MEAN_ANOMALY":88.8479,"EPHEMERIS_TYPE":0,"CLASSIFICATION_TYPE":"U","NORAD_CAT_ID":67014,"ELEMENT_SET_NO":999,"REV_AT_EPOCH":1485,"BSTAR":0.00020756491,"MEAN_MOTION_DOT":2.383e-5,"MEAN_MOTION_DDOT":0}]
